{"type":"FeatureCollection","features":[{"type":"Feature","properties":{"Province":"Amnat Charoen","Suit_mean":0.7053,"Suit_max":0.7791,"Candidate_km2":0.0},"geometry":{"type":"Polygon","coordinates":[[[104.5111,15.5596],[104.5514,15.5431],[104.5567,15.5551],[104.5908,15.5656],[104.5899,15.5854],[104.5809,15.6031],[104.6162,15.6167],[104.6159,15.6334],[104.6395,15.6445],[104.6337,15.6579],[104.6053,15.6703],[104.613,15.6814],[104.631,15.685],[104.6847,15.669],[104.6957,15.6579],[104.7179,15.6567],[104.7327,15.6467],[104.7433,15.6554],[104.746,15.6432],[104.7904,15.6189],[104.7901,15.6049],[104.8009,15.5916],[104.815,15.602],[104.8248,15.5864],[104.8388,15.5898],[104.8497,15.5728],[104.8635,15.5837],[104.8776,15.5635],[104.8673,15.5564],[104.8757,15.5361],[104.8918,15.5457],[104.8972,15.5598],[104.8895,15.5732],[104.9049,15.5889],[104.9274,15.5985],[104.9361,15.639],[104.9012,15.6512],[104.8994,15.6868],[104.9118,15.7293],[104.9087,15.745],[104.9631,15.7912],[104.9669,15.8537],[104.9866,15.9132],[104.9733,15.9156],[104.9749,15.9265],[105.012,15.9571],[105.007,15.987],[105.0127,15.9983],[105.01,16.028],[105.0294,16.052],[105.0409,16.0855],[105.0632,16.0932],[105.0412,16.1096],[104.9953,16.2632],[104.965,16.2793],[104.9548,16.2601],[104.9152,16.2465],[104.8904,16.2297],[104.88,16.2048],[104.8439,16.1983],[104.8187,16.1844],[104.7953,16.1978],[104.7743,16.1929],[104.7684,16.1848],[104.7923,16.157],[104.8267,16.1536],[104.8158,16.0923],[104.7837,16.0989],[104.7282,16.0943],[104.7098,16.1044],[104.6517,16.1161],[104.5644,16.0964],[104.53,16.0321],[104.5282,16.0064],[104.5336,15.9981],[104.5249,15.9845],[104.5065,15.9752],[104.507,15.9513],[104.4716,15.9149],[104.4699,15.8986],[104.4568,15.8977],[104.4613,15.889],[104.4525,15.8612],[104.4632,15.8397],[104.44,15.8063],[104.443,15.8012],[104.4287,15.7695],[104.4356,15.7538],[104.4229,15.7426],[104.4316,15.7353],[104.4229,15.702],[104.4253,15.6958],[104.4387,15.6983],[104.4395,15.684],[104.4449,15.6828],[104.4396,15.6638],[104.4475,15.6555],[104.4421,15.6438],[104.4492,15.6351],[104.4409,15.6178],[104.4518,15.6161],[104.4664,15.6255],[104.4684,15.5984],[104.4613,15.5904],[104.4827,15.5832],[104.4926,15.5901],[104.4945,15.5832],[104.5066,15.5853],[104.5111,15.5596]]]}},{"type":"Feature","properties":{"Province":"Ubon Ratchathani","Suit_mean":0.6543,"Suit_max":0.9621,"Candidate_km2":0.0},"geometry":{"type":"Polygon","coordinates":[[[104.9124,14.3959],[105.0008,14.3661],[104.9964,14.3132],[105.026,14.2507],[105.1375,14.2269],[105.1755,14.3293],[105.2234,14.3318],[105.3188,14.3867],[105.3936,14.4027],[105.4591,14.4542],[105.5236,14.5359],[105.5437,14.5813],[105.522,14.6651],[105.5455,14.7298],[105.5394,14.8064],[105.5673,14.8784],[105.5578,14.9438],[105.6276,14.9785],[105.4787,15.1525],[105.545,15.2466],[105.5815,15.3186],[105.4681,15.3369],[105.591,15.4269],[105.6181,15.5621],[105.612,15.6897],[105.5312,15.7494],[105.4565,15.7468],[105.3797,15.8427],[105.3809,15.9892],[105.3193,16.0297],[105.0582,16.0925],[105.0401,16.083],[105.0294,16.052],[105.0072,16.0224],[105.0129,16.002],[105.0078,15.9859],[105.0138,15.9636],[105.0106,15.9546],[104.9852,15.9378],[104.9741,15.9226],[104.9769,15.9123],[104.9878,15.9129],[104.9673,15.8568],[104.9679,15.809],[104.9608,15.7866],[104.9103,15.751],[104.9115,15.727],[104.8988,15.6825],[104.9009,15.654],[104.9366,15.638],[104.9261,15.5985],[104.9024,15.5879],[104.8887,15.5722],[104.8972,15.5598],[104.8835,15.5355],[104.8757,15.5361],[104.8678,15.5529],[104.8694,15.5591],[104.8777,15.5591],[104.866,15.5793],[104.8603,15.5831],[104.8595,15.5758],[104.8521,15.578],[104.8509,15.5722],[104.8363,15.5899],[104.8305,15.5849],[104.8226,15.589],[104.8122,15.6028],[104.8039,15.5913],[104.7908,15.6017],[104.79,15.62],[104.7836,15.6179],[104.7704,15.6323],[104.7478,15.6407],[104.7412,15.6556],[104.7317,15.6466],[104.7179,15.6567],[104.6971,15.6568],[104.6807,15.6699],[104.6517,15.6743],[104.6334,15.6848],[104.61,15.6793],[104.6042,15.6717],[104.6354,15.6561],[104.64,15.646],[104.6159,15.6334],[104.6172,15.6175],[104.5861,15.6075],[104.581,15.6007],[104.5903,15.5839],[104.5908,15.5656],[104.5549,15.5516],[104.5514,15.5431],[104.5111,15.5596],[104.4949,15.552],[104.4878,15.5379],[104.4481,15.5399],[104.3931,15.5326],[104.388,15.5065],[104.3922,15.4771],[104.3809,15.4544],[104.3928,15.411],[104.3845,15.3955],[104.3879,15.3884],[104.4076,15.3868],[104.4209,15.3604],[104.424,15.3422],[104.4169,15.2937],[104.4271,15.2828],[104.4524,15.2757],[104.4667,15.2646],[104.5063,15.2667],[104.5235,15.2541],[104.5668,15.2424],[104.5841,15.2476],[104.5831,15.2569],[104.6101,15.2713],[104.6153,15.2559],[104.6326,15.2605],[104.6467,15.255],[104.6486,15.2381],[104.664,15.2311],[104.6672,15.2354],[104.6571,15.2463],[104.6648,15.2561],[104.6823,15.2246],[104.6978,15.2203],[104.6835,15.2123],[104.6909,15.2073],[104.6852,15.1977],[104.7028,15.1994],[104.7037,15.1857],[104.7196,15.1906],[104.7192,15.1821],[104.7006,15.1704],[104.6997,15.1594],[104.7085,15.157],[104.7242,15.1688],[104.7339,15.1678],[104.7383,15.1582],[104.7091,15.1296],[104.6907,15.1259],[104.6724,15.0946],[104.6799,15.0919],[104.6876,15.0996],[104.6904,15.0939],[104.6822,15.0814],[104.69,15.0834],[104.6941,15.0781],[104.6841,15.0463],[104.6902,15.042],[104.6859,15.0355],[104.6773,15.0401],[104.6753,15.0328],[104.6751,15.0192],[104.6882,14.9997],[104.687,14.9646],[104.7136,14.9268],[104.7667,14.9131],[104.8028,14.8899],[104.8227,14.8418],[104.8214,14.8314],[104.8119,14.8307],[104.806,14.8147],[104.811,14.7936],[104.844,14.7199],[104.876,14.704],[104.8903,14.6698],[104.9068,14.6542],[104.9044,14.6441],[104.8682,14.6599],[104.8529,14.6524],[104.8282,14.5998],[104.8313,14.5773],[104.8216,14.5485],[104.8635,14.4903],[104.863,14.4713],[104.8353,14.4445],[104.8412,14.4253],[104.8833,14.4271],[104.9098,14.4086],[104.9124,14.3959]]]}},{"type":"Feature","properties":{"Province":"Udon Thani","Suit_mean":0.7113,"Suit_max":0.9272,"Candidate_km2":0.0},"geometry":{"type":"Polygon","coordinates":[[[102.0593,18.0801],[102.057,18.0453],[102.0419,18.0143],[102.0404,17.9871],[102.0249,17.9821],[102.0448,17.884],[102.0542,17.8672],[102.0537,17.8291],[102.0437,17.7813],[102.033,17.7716],[102.0233,17.7378],[102.0369,17.6564],[102.051,17.6471],[102.1113,17.639],[102.1268,17.631],[102.1495,17.6573],[102.1679,17.6616],[102.2519,17.6514],[102.284,17.668],[102.3236,17.6737],[102.3358,17.5535],[102.3729,17.4893],[102.394,17.4318],[102.3958,17.4109],[102.3851,17.3777],[102.42,17.3719],[102.4313,17.3581],[102.442,17.322],[102.4424,17.2884],[102.4533,17.2774],[102.5074,17.2778],[102.5823,17.2667],[102.598,17.2589],[102.588,17.2384],[102.5588,17.2202],[102.4776,17.2012],[102.5313,17.0821],[102.547,17.0607],[102.5824,17.0353],[102.6716,16.9908],[102.6814,17.0049],[102.6861,17.0531],[102.6992,17.0662],[102.7047,17.0852],[102.7171,17.0705],[102.72,17.0532],[102.792,17.0098],[102.8243,16.9725],[102.8098,16.9496],[102.8234,16.9344],[102.8154,16.9027],[102.8249,16.8678],[102.8355,16.8648],[102.8659,16.877],[102.9291,16.8379],[102.9502,16.8368],[103.0722,16.8955],[103.0898,16.8968],[103.1185,16.9573],[103.1577,16.9458],[103.2339,16.9568],[103.2524,16.9524],[103.2957,16.9224],[103.3511,16.9174],[103.3812,16.9027],[103.4067,16.8789],[103.4139,16.8639],[103.4081,16.8497],[103.4263,16.8206],[103.4144,16.8076],[103.4273,16.8018],[103.4502,16.8295],[103.4463,16.8466],[103.4884,16.9009],[103.4883,16.9314],[103.4968,16.9607],[103.5219,17.0052],[103.5154,17.0459],[103.5251,17.0553],[103.5477,17.0765],[103.5861,17.0977],[103.6137,17.0935],[103.642,17.0669],[103.6567,17.0359],[103.6555,17.0183],[103.6638,17.0249],[103.6615,17.0775],[103.6706,17.0966],[103.6623,17.1095],[103.6411,17.1103],[103.6258,17.1446],[103.6017,17.1667],[103.574,17.1563],[103.4799,17.2177],[103.4201,17.2106],[103.363,17.2363],[103.3565,17.2497],[103.3056,17.2643],[103.2877,17.2622],[103.257,17.3099],[103.3023,17.3842],[103.2803,17.4294],[103.2916,17.4604],[103.2919,17.494],[103.3198,17.5187],[103.3231,17.5382],[103.3498,17.5779],[103.3652,17.5845],[103.3777,17.5757],[103.383,17.5878],[103.4162,17.592],[103.4026,17.6062],[103.4107,17.7355],[103.4049,17.7513],[103.3879,17.7497],[103.3723,17.778],[103.388,17.8188],[103.385,17.8357],[103.4105,17.8317],[103.4144,17.8379],[103.3992,17.8434],[103.4064,17.8528],[103.4047,17.8727],[103.3678,17.8762],[103.3484,17.87],[103.3408,17.8547],[103.303,17.8259],[103.2723,17.839],[103.2659,17.858],[103.2296,17.8693],[103.1936,17.8618],[103.1796,17.8499],[103.1626,17.8014],[103.1458,17.8028],[103.1368,17.8109],[103.1298,17.8357],[103.1106,17.8558],[103.0779,17.8744],[103.061,17.8722],[103.0469,17.8837],[103.0137,17.8631],[102.9837,17.8241],[102.9665,17.8204],[102.9543,17.8518],[102.9336,17.8815],[102.9026,17.8845],[102.8873,17.8931],[102.8739,17.8817],[102.8764,17.8633],[102.8635,17.8392],[102.8484,17.8304],[102.8394,17.8067],[102.8329,17.8037],[102.8513,17.7813],[102.8535,17.7604],[102.8473,17.7187],[102.8294,17.687],[102.7926,17.6791],[102.7815,17.666],[102.7782,17.6486],[102.7663,17.6394],[102.7674,17.6223],[102.726,17.601],[102.6926,17.6105],[102.6568,17.592],[102.6483,17.608],[102.5987,17.6199],[102.6021,17.6521],[102.5857,17.7021],[102.5275,17.7568],[102.4717,17.7495],[102.4565,17.7578],[102.4518,17.7744],[102.4366,17.7864],[102.4437,17.8163],[102.4261,17.8202],[102.403,17.8426],[102.3994,17.8772],[102.3894,17.8916],[102.3379,17.9315],[102.2867,17.9877],[102.2732,17.979],[102.2434,17.9987],[102.2075,18.006],[102.2025,18.0158],[102.1729,18.0066],[102.1657,17.9903],[102.1511,17.9927],[102.1447,18.0086],[102.1477,18.0253],[102.1295,18.0303],[102.1136,18.024],[102.1128,18.0553],[102.0952,18.0545],[102.0593,18.0801]]]}},{"type":"Feature","properties":{"Province":"Chaiyaphum","Suit_mean":0.6626,"Suit_max":0.9544,"Candidate_km2":0.0},"geometry":{"type":"Polygon","coordinates":[[[101.3218,15.7828],[101.3329,15.7785],[101.3436,15.7445],[101.3813,15.731],[101.392,15.7374],[101.406,15.7353],[101.4008,15.6878],[101.3744,15.5751],[101.3781,15.5236],[101.3899,15.4735],[101.3813,15.4261],[101.3815,15.3655],[101.3922,15.3423],[101.3854,15.3306],[101.3927,15.32],[101.415,15.3099],[101.4366,15.3505],[101.4916,15.3458],[101.5333,15.3698],[101.6033,15.3714],[101.6272,15.3608],[101.6499,15.3909],[101.6622,15.3935],[101.7113,15.3874],[101.7356,15.3777],[101.7773,15.3773],[101.7877,15.3837],[101.8115,15.4275],[101.8209,15.4172],[101.8458,15.4121],[101.8788,15.3908],[101.9001,15.3965],[101.9429,15.4518],[101.9693,15.4498],[101.9968,15.4602],[102.0264,15.4597],[102.0372,15.4664],[102.0481,15.5179],[102.0438,15.5431],[102.0485,15.554],[102.0783,15.5992],[102.083,15.6206],[102.1317,15.6481],[102.1335,15.6672],[102.1441,15.6712],[102.1498,15.6821],[102.1511,15.7044],[102.1639,15.7229],[102.1616,15.7329],[102.1769,15.7406],[102.1905,15.7428],[102.196,15.7369],[102.208,15.7413],[102.2084,15.7508],[102.2383,15.7408],[102.258,15.7526],[102.2615,15.7734],[102.31,15.7903],[102.3168,15.8023],[102.3278,15.8007],[102.3246,15.8541],[102.354,15.8932],[102.3623,15.9269],[102.3771,15.9431],[102.3727,15.9543],[102.3767,15.9656],[102.3884,15.9842],[102.3826,15.9947],[102.3582,16.0026],[102.3483,16.0265],[102.3383,16.0336],[102.3266,16.0289],[102.3035,16.0373],[102.2825,16.0731],[102.3362,16.1351],[102.4132,16.2459],[102.4159,16.2739],[102.4447,16.3394],[102.4594,16.3915],[102.4174,16.4226],[102.407,16.4575],[102.3979,16.461],[102.3962,16.4433],[102.3697,16.4354],[102.3687,16.4477],[102.336,16.4435],[102.3233,16.4446],[102.3173,16.4522],[102.2937,16.4471],[102.2851,16.4557],[102.2748,16.4543],[102.2458,16.4682],[102.2421,16.4804],[102.2013,16.5002],[102.1823,16.4984],[102.1747,16.4907],[102.1588,16.5012],[102.1315,16.4938],[102.073,16.4926],[102.0756,16.4991],[102.0377,16.5178],[102.0246,16.5575],[101.9924,16.5682],[101.9941,16.5776],[101.9802,16.6061],[101.9451,16.633],[101.924,16.626],[101.9081,16.6288],[101.8928,16.642],[101.8376,16.655],[101.8036,16.6455],[101.7826,16.631],[101.777,16.6462],[101.754,16.6548],[101.7516,16.6656],[101.726,16.6501],[101.6888,16.6824],[101.6225,16.6811],[101.6042,16.7016],[101.5726,16.7212],[101.5479,16.7208],[101.5494,16.7092],[101.5771,16.6873],[101.5862,16.6633],[101.5838,16.6531],[101.5772,16.6429],[101.5554,16.67],[101.5205,16.6785],[101.5134,16.6556],[101.529,16.6212],[101.5236,16.6133],[101.5121,16.6128],[101.5052,16.6022],[101.5028,16.5763],[101.5055,16.5558],[101.5174,16.5512],[101.5196,16.5411],[101.508,16.5406],[101.4932,16.5275],[101.4764,16.523],[101.4699,16.5129],[101.4769,16.4758],[101.4494,16.4372],[101.4052,16.3941],[101.413,16.3843],[101.3834,16.3462],[101.3728,16.2749],[101.355,16.2502],[101.3753,16.2368],[101.3715,16.2258],[101.3788,16.1911],[101.3444,16.1477],[101.341,16.1003],[101.3277,16.0435],[101.3463,15.9863],[101.3607,15.9654],[101.3794,15.9559],[101.372,15.9323],[101.3798,15.9153],[101.3602,15.8863],[101.3488,15.8865],[101.3388,15.8739],[101.3315,15.8508],[101.3368,15.8425],[101.33,15.8321],[101.337,15.8258],[101.3348,15.7934],[101.3218,15.7828]]]}},{"type":"Feature","properties":{"Province":"Kalasin","Suit_mean":0.6833,"Suit_max":0.8651,"Candidate_km2":0.0},"geometry":{"type":"Polygon","coordinates":[[[103.1007,16.9149],[103.1244,16.8939],[103.121,16.8645],[103.106,16.8326],[103.1088,16.8222],[103.127,16.8153],[103.1366,16.8252],[103.1485,16.8432],[103.1421,16.8646],[103.1744,16.8548],[103.173,16.8437],[103.1858,16.8165],[103.1817,16.7835],[103.1696,16.7636],[103.1489,16.7492],[103.1604,16.7309],[103.1487,16.7008],[103.1527,16.6807],[103.1614,16.6721],[103.156,16.6404],[103.1923,16.6344],[103.1911,16.6231],[103.1729,16.6002],[103.1853,16.5433],[103.1651,16.4903],[103.1694,16.4635],[103.1848,16.4472],[103.1864,16.4351],[103.167,16.3886],[103.1756,16.3667],[103.1846,16.361],[103.2664,16.3755],[103.2855,16.3909],[103.2962,16.388],[103.3046,16.3662],[103.3426,16.3581],[103.3634,16.3058],[103.3912,16.2837],[103.4136,16.2781],[103.4127,16.2468],[103.4448,16.2171],[103.4493,16.2227],[103.4464,16.2067],[103.4578,16.1812],[103.4807,16.2014],[103.5063,16.2023],[103.5202,16.193],[103.5368,16.2163],[103.5466,16.2097],[103.5618,16.2117],[103.5535,16.2048],[103.5597,16.1996],[103.5932,16.192],[103.5999,16.1984],[103.6045,16.1904],[103.6213,16.2004],[103.6159,16.2092],[103.606,16.2084],[103.6079,16.2142],[103.6205,16.2148],[103.6365,16.1876],[103.654,16.1866],[103.6564,16.1975],[103.6608,16.1918],[103.68,16.1981],[103.6645,16.2081],[103.6704,16.2174],[103.6762,16.2096],[103.6845,16.2134],[103.6878,16.2081],[103.6962,16.2116],[103.6935,16.22],[103.7198,16.2162],[103.7364,16.2231],[103.7408,16.247],[103.756,16.2621],[103.7587,16.2927],[103.7552,16.3037],[103.7289,16.3273],[103.7297,16.3404],[103.7095,16.3658],[103.7061,16.3799],[103.7308,16.3916],[103.7463,16.4095],[103.8287,16.4689],[103.8522,16.4628],[103.8645,16.4675],[103.9021,16.4465],[103.9108,16.4492],[103.9248,16.4355],[103.9491,16.4386],[103.9852,16.4295],[104.0004,16.4418],[104.0379,16.4362],[104.0443,16.3938],[104.0571,16.3915],[104.1038,16.4172],[104.1395,16.4215],[104.1659,16.4407],[104.1972,16.4272],[104.2426,16.4415],[104.2297,16.4732],[104.2414,16.4924],[104.2444,16.5146],[104.2282,16.5283],[104.224,16.5377],[104.228,16.5491],[104.2132,16.5627],[104.2065,16.5854],[104.1957,16.5955],[104.1822,16.5973],[104.179,16.6093],[104.1842,16.6259],[104.18,16.6433],[104.189,16.6631],[104.1717,16.6741],[104.1667,16.6834],[104.1732,16.6935],[104.1544,16.7037],[104.152,16.7156],[104.1363,16.7338],[104.1335,16.7554],[104.1154,16.7681],[104.0705,16.8367],[104.0369,16.8439],[104.027,16.8552],[104.0003,16.8328],[103.9851,16.8305],[103.9728,16.8114],[103.9635,16.822],[103.9542,16.7889],[103.9567,16.7769],[103.9415,16.7735],[103.9369,16.7841],[103.8778,16.8182],[103.812,16.8757],[103.7866,16.9085],[103.7871,16.9516],[103.7451,16.9763],[103.7376,16.987],[103.7276,16.9815],[103.7313,17.0061],[103.699,17.0292],[103.6606,17.0165],[103.6532,17.0247],[103.6554,17.0458],[103.6295,17.081],[103.6111,17.0952],[103.5959,17.0918],[103.5861,17.0977],[103.5636,17.0848],[103.553,17.0857],[103.5369,17.0612],[103.5145,17.0449],[103.5216,17.0028],[103.501,16.9771],[103.4949,16.9591],[103.4881,16.9319],[103.4945,16.9229],[103.4907,16.9029],[103.446,16.8461],[103.4473,16.8269],[103.4261,16.8005],[103.4168,16.8037],[103.4263,16.8186],[103.4065,16.8552],[103.4139,16.8623],[103.4105,16.8718],[103.382,16.9025],[103.3704,16.9031],[103.3434,16.9199],[103.2879,16.9256],[103.2817,16.9357],[103.2447,16.9577],[103.2249,16.9594],[103.2051,16.9553],[103.2002,16.9466],[103.1817,16.9513],[103.1591,16.9449],[103.1236,16.9587],[103.1161,16.9531],[103.1007,16.9149]]]}},{"type":"Feature","properties":{"Province":"Khon Kaen","Suit_mean":0.714,"Suit_max":0.964,"Candidate_km2":0.0},"geometry":{"type":"Polygon","coordinates":[[[102.9336,15.7927],[102.923,15.8412],[102.9276,15.8578],[102.894,15.9308],[102.9072,15.9746],[102.9055,15.9901],[102.8937,16.0058],[102.8965,16.0195],[102.8697,16.0379],[102.8565,16.0637],[102.8699,16.1291],[102.8495,16.2048],[102.8499,16.2662],[102.8573,16.2803],[102.8993,16.3139],[102.8975,16.3286],[102.9096,16.3553],[102.958,16.3978],[102.952,16.4055],[102.9591,16.4171],[102.9516,16.4211],[102.9509,16.4367],[102.9638,16.4483],[103.0225,16.4706],[103.0366,16.4959],[103.0459,16.488],[103.0847,16.5084],[103.1148,16.5561],[103.1233,16.5878],[103.1554,16.6095],[103.154,16.6567],[103.1616,16.671],[103.1481,16.6994],[103.1605,16.7277],[103.1516,16.7412],[103.1566,16.7551],[103.1716,16.7657],[103.1836,16.7949],[103.1852,16.8119],[103.1744,16.8548],[103.1426,16.8649],[103.1485,16.8516],[103.1441,16.8353],[103.1328,16.8209],[103.1185,16.8149],[103.1073,16.8243],[103.1267,16.892],[103.1022,16.9113],[103.0904,16.8976],[103.0464,16.8842],[102.951,16.8368],[102.9339,16.8361],[102.8752,16.8775],[102.8612,16.8793],[102.8342,16.8637],[102.8249,16.8678],[102.816,16.8975],[102.8214,16.9273],[102.8097,16.9554],[102.8236,16.9647],[102.8221,16.9732],[102.7948,17.0083],[102.7185,17.0569],[102.717,17.0719],[102.7054,17.0856],[102.7012,17.0685],[102.6832,17.0425],[102.6807,16.951],[102.6421,16.873],[102.6182,16.8083],[102.6204,16.7633],[102.5995,16.7637],[102.5269,16.7926],[102.4831,16.8033],[102.4581,16.8014],[102.4571,16.7858],[102.4316,16.787],[102.406,16.8132],[102.3803,16.8079],[102.3533,16.8249],[102.3465,16.8185],[102.3326,16.8418],[102.3352,16.8491],[102.3237,16.8521],[102.3281,16.8645],[102.3144,16.8666],[102.3003,16.8886],[102.2568,16.8892],[102.2511,16.8778],[102.1966,16.8564],[102.1551,16.8795],[102.1303,16.8805],[102.1041,16.8934],[102.1002,16.8813],[102.0705,16.886],[102.0612,16.8712],[102.0385,16.8601],[102.0134,16.8675],[101.9964,16.8401],[101.9457,16.8471],[101.9488,16.8375],[101.8977,16.81],[101.8825,16.8077],[101.8599,16.788],[101.7899,16.7571],[101.7815,16.7465],[101.7906,16.7197],[101.7797,16.7082],[101.7717,16.68],[101.7581,16.6745],[101.7551,16.661],[101.7601,16.6497],[101.7766,16.6465],[101.778,16.6327],[101.8142,16.649],[101.8429,16.653],[101.9068,16.632],[101.9533,16.628],[101.9796,16.6011],[101.9939,16.5757],[101.9939,16.5635],[102.024,16.5576],[102.0446,16.5099],[102.071,16.5011],[102.0716,16.4942],[102.1723,16.4942],[102.2061,16.5012],[102.2435,16.4777],[102.2609,16.4583],[102.2863,16.4534],[102.2982,16.4443],[102.3142,16.4503],[102.3386,16.4444],[102.3661,16.4501],[102.369,16.4357],[102.4011,16.4448],[102.4007,16.4588],[102.4068,16.4582],[102.4138,16.429],[102.4583,16.3856],[102.423,16.296],[102.4171,16.2503],[102.3282,16.126],[102.2897,16.0868],[102.2852,16.0681],[102.3016,16.04],[102.3298,16.0278],[102.3441,16.0323],[102.3575,16.0033],[102.3886,15.9923],[102.3875,15.9766],[102.3767,15.9661],[102.3517,15.8876],[102.3238,15.8521],[102.3369,15.7915],[102.3668,15.7581],[102.3628,15.7418],[102.3677,15.7277],[102.3847,15.7264],[102.4213,15.6927],[102.4643,15.7142],[102.5156,15.7254],[102.5549,15.704],[102.5882,15.7042],[102.615,15.724],[102.6457,15.7109],[102.6933,15.7209],[102.7013,15.7114],[102.703,15.6847],[102.7273,15.6626],[102.7436,15.6646],[102.7997,15.6331],[102.832,15.6301],[102.8644,15.6445],[102.875,15.6607],[102.882,15.6931],[102.878,15.7262],[102.885,15.7711],[102.8983,15.7862],[102.9336,15.7927]]]}},{"type":"Feature","properties":{"Province":"Loei","Suit_mean":0.5243,"Suit_max":0.7801,"Candidate_km2":0.0},"geometry":{"type":"Polygon","coordinates":[[[100.9814,17.5694],[100.9258,17.5671],[100.8969,17.589],[100.886,17.582],[100.8703,17.558],[100.8679,17.5442],[100.8747,17.5232],[100.8381,17.474],[100.8533,17.4503],[100.8771,17.4461],[100.8982,17.4602],[100.9212,17.4456],[100.9275,17.3998],[100.9189,17.3707],[100.9222,17.336],[100.9982,17.3366],[101.0503,17.2838],[101.0603,17.2773],[101.0844,17.2772],[101.1087,17.2333],[101.107,17.2093],[101.0835,17.1807],[101.0807,17.1326],[101.0638,17.0826],[101.056,17.076],[101.0593,17.0152],[101.0467,16.992],[101.0524,16.9595],[101.0318,16.9353],[101.04,16.9272],[101.066,16.9251],[101.0771,16.9173],[101.0772,16.8986],[101.1061,16.8904],[101.1209,16.9381],[101.1159,17.0039],[101.1328,17.023],[101.17,17.0317],[101.1785,17.0409],[101.2048,17.086],[101.2033,17.1162],[101.2378,17.1218],[101.2821,17.0967],[101.2887,17.0792],[101.311,17.088],[101.3278,17.0705],[101.3382,17.0689],[101.3437,17.0788],[101.4022,17.0768],[101.4046,17.0884],[101.4332,17.0692],[101.4725,17.0891],[101.4864,17.0687],[101.4957,17.0693],[101.5127,17.052],[101.5334,17.049],[101.5388,17.0179],[101.5508,16.9967],[101.5691,16.9824],[101.5817,16.9821],[101.5897,16.991],[101.6132,16.9967],[101.6332,17.0398],[101.6514,17.0335],[101.6506,17.02],[101.6809,16.9674],[101.694,16.921],[101.6816,16.863],[101.6908,16.8548],[101.6883,16.8438],[101.7229,16.8058],[101.7182,16.8003],[101.7071,16.8074],[101.6857,16.7998],[101.7255,16.751],[101.7636,16.7524],[101.8639,16.7883],[101.8794,16.8051],[101.9043,16.811],[101.9508,16.8401],[101.9476,16.849],[101.9964,16.8401],[102.0157,16.8681],[102.0483,16.8602],[102.0705,16.886],[102.0699,16.8943],[102.0564,16.8997],[102.0501,16.9098],[102.0362,16.9438],[102.042,16.9539],[102.0806,16.9636],[102.0983,16.9812],[102.1032,17.0026],[102.1305,17.0052],[102.1519,17.0221],[102.127,17.039],[102.1229,17.0508],[102.1041,17.0662],[102.1064,17.0768],[102.0908,17.1087],[102.0214,17.1342],[102.0241,17.1683],[102.0465,17.1595],[102.0745,17.1863],[102.0831,17.1826],[102.0809,17.1935],[102.0017,17.1997],[102.0048,17.2123],[102.0174,17.2146],[102.0689,17.2069],[102.0633,17.2504],[102.0508,17.2521],[102.0123,17.2909],[101.995,17.3245],[102.0231,17.3427],[102.017,17.3544],[102.0213,17.367],[101.9959,17.3967],[102.002,17.4079],[101.9917,17.4309],[101.9941,17.4534],[102.0323,17.4583],[102.0562,17.4492],[102.0908,17.461],[102.1318,17.4903],[102.1288,17.5012],[102.1382,17.5083],[102.1407,17.52],[102.1369,17.5541],[102.1199,17.5736],[102.1148,17.5961],[102.085,17.641],[102.062,17.6523],[102.0484,17.6462],[102.0373,17.6545],[102.022,17.7466],[102.0386,17.7807],[102.0491,17.7865],[102.0439,17.7971],[102.054,17.8228],[102.0553,17.8627],[102.0235,17.9802],[102.0338,17.9878],[102.0457,17.9867],[102.0426,18.0095],[102.0551,18.031],[102.0616,18.096],[102.0758,18.1434],[102.1056,18.1634],[102.1066,18.1983],[102.0616,18.205],[101.9316,18.0626],[101.8213,18.0553],[101.7545,17.9986],[101.6917,17.9125],[101.5658,17.8438],[101.5218,17.7728],[101.4772,17.7449],[101.4036,17.7355],[101.3808,17.697],[101.3017,17.6339],[101.2326,17.5509],[101.1634,17.4916],[101.1221,17.4839],[100.9814,17.5694]]]}},{"type":"Feature","properties":{"Province":"Maha Sarakham","Suit_mean":0.7328,"Suit_max":0.83,"Candidate_km2":0.0},"geometry":{"type":"Polygon","coordinates":[[[102.8478,16.2384],[102.8535,16.2216],[102.8494,16.2053],[102.8708,16.1198],[102.8555,16.0647],[102.8627,16.0582],[102.8631,16.0389],[102.8971,16.0218],[102.8932,16.0061],[102.9032,15.9971],[102.9081,15.9798],[102.894,15.9308],[102.9252,15.8679],[102.924,15.8217],[102.932,15.8127],[102.9444,15.7657],[102.9753,15.7515],[102.9868,15.736],[103.0085,15.7228],[103.0132,15.6984],[103.0091,15.683],[102.9788,15.6609],[103.0154,15.6236],[103.0269,15.6006],[103.0508,15.5902],[103.0545,15.559],[103.0904,15.5355],[103.0942,15.5265],[103.0802,15.5092],[103.0797,15.4922],[103.2189,15.4554],[103.2331,15.4437],[103.2508,15.4438],[103.2746,15.4201],[103.3155,15.4099],[103.3483,15.4042],[103.4001,15.4269],[103.4241,15.4993],[103.4214,15.5285],[103.4144,15.5351],[103.3871,15.5348],[103.365,15.5233],[103.3558,15.5376],[103.305,15.5616],[103.2969,15.5875],[103.2777,15.598],[103.2778,15.6065],[103.2997,15.6246],[103.308,15.661],[103.2801,15.663],[103.3022,15.6936],[103.3331,15.7032],[103.3511,15.7183],[103.3945,15.7059],[103.4123,15.7085],[103.4223,15.7192],[103.4224,15.737],[103.4002,15.7552],[103.4318,15.7779],[103.4482,15.8705],[103.4649,15.9213],[103.4794,15.9283],[103.4638,15.9785],[103.4668,16.0246],[103.4734,16.0387],[103.458,16.0924],[103.4654,16.1244],[103.4827,16.1419],[103.4946,16.1676],[103.493,16.1868],[103.5023,16.189],[103.5064,16.204],[103.4821,16.2045],[103.4745,16.1908],[103.4583,16.1814],[103.4453,16.2057],[103.4468,16.2239],[103.443,16.2164],[103.4351,16.231],[103.4158,16.2404],[103.4108,16.2505],[103.4137,16.2755],[103.389,16.285],[103.366,16.304],[103.3461,16.3553],[103.3053,16.3658],[103.2929,16.3914],[103.2678,16.3759],[103.181,16.3603],[103.1746,16.3678],[103.1671,16.3862],[103.1872,16.4416],[103.1694,16.4635],[103.1648,16.4862],[103.1867,16.5471],[103.1738,16.6049],[103.1937,16.6329],[103.1539,16.641],[103.1535,16.6068],[103.124,16.5893],[103.1192,16.5622],[103.0892,16.5241],[103.0841,16.5081],[103.0475,16.4899],[103.041,16.4885],[103.0371,16.4958],[103.0194,16.4693],[102.9691,16.4535],[102.9525,16.4414],[102.9519,16.4239],[102.9592,16.4184],[102.9521,16.3991],[102.958,16.3955],[102.9347,16.3728],[102.9267,16.3746],[102.9263,16.362],[102.9199,16.365],[102.8975,16.3286],[102.8976,16.312],[102.8581,16.2811],[102.8498,16.2656],[102.8478,16.2384]]]}},{"type":"Feature","properties":{"Province":"Mukdahan","Suit_mean":0.6697,"Suit_max":0.7887,"Candidate_km2":0.0},"geometry":{"type":"Polygon","coordinates":[[[104.0748,16.8217],[104.0968,16.804],[104.0992,16.7881],[104.1202,16.7609],[104.1342,16.7541],[104.1363,16.7338],[104.157,16.7],[104.1734,16.6916],[104.1679,16.6763],[104.1885,16.6685],[104.1808,16.6513],[104.1846,16.6227],[104.1781,16.6071],[104.1831,16.5961],[104.1964,16.5952],[104.2065,16.5854],[104.2092,16.5674],[104.2271,16.5527],[104.226,16.5306],[104.2444,16.5146],[104.2418,16.4937],[104.2294,16.4709],[104.2412,16.4521],[104.244,16.4278],[104.2875,16.4469],[104.2919,16.4703],[104.3109,16.4562],[104.322,16.4207],[104.3186,16.3883],[104.3306,16.3423],[104.3252,16.3259],[104.3511,16.3197],[104.3669,16.337],[104.3892,16.3449],[104.4361,16.3432],[104.4569,16.3353],[104.4958,16.3403],[104.5077,16.3333],[104.5125,16.3162],[104.552,16.3078],[104.5858,16.2396],[104.6064,16.2351],[104.6098,16.2246],[104.634,16.2092],[104.6554,16.2132],[104.6638,16.2317],[104.6703,16.2317],[104.6899,16.2236],[104.7011,16.2102],[104.7251,16.2019],[104.7585,16.1984],[104.766,16.1917],[104.7953,16.1978],[104.8134,16.184],[104.8339,16.1887],[104.8439,16.1983],[104.861,16.1972],[104.8839,16.2071],[104.893,16.2319],[104.9193,16.2489],[104.9336,16.2492],[104.9557,16.2606],[104.9674,16.2797],[104.9783,16.2727],[104.9841,16.2754],[104.8889,16.3574],[104.8375,16.4606],[104.7357,16.5762],[104.7576,16.7249],[104.7312,16.8034],[104.7163,16.8233],[104.7036,16.8224],[104.6683,16.786],[104.6462,16.8176],[104.645,16.8417],[104.6288,16.8593],[104.5476,16.8614],[104.5025,16.8462],[104.4752,16.8624],[104.4522,16.8632],[104.4249,16.8849],[104.4133,16.8851],[104.4054,16.8759],[104.3825,16.8873],[104.366,16.8856],[104.3566,16.8999],[104.3143,16.8948],[104.2928,16.8995],[104.2679,16.9151],[104.2441,16.8904],[104.2206,16.8889],[104.2074,16.8739],[104.1691,16.888],[104.1275,16.886],[104.1257,16.8607],[104.1084,16.8337],[104.0748,16.8217]]]}},{"type":"Feature","properties":{"Province":"Nakhon Phanom","Suit_mean":0.7075,"Suit_max":0.8622,"Candidate_km2":0.0},"geometry":{"type":"Polygon","coordinates":[[[104.7392,16.8017],[104.7346,16.9077],[104.8032,17.3388],[104.6987,17.5302],[104.5282,17.6206],[104.383,17.7775],[104.2765,17.8608],[104.1914,18.0195],[104.1763,18.0025],[104.1562,18.0258],[104.1496,18.0241],[104.1357,18.0082],[104.119,18.0024],[104.1161,17.9744],[104.1299,17.9441],[104.0843,17.8831],[104.0721,17.8765],[104.0529,17.8855],[104.024,17.8815],[104.001,17.8905],[103.9859,17.8699],[103.9828,17.8555],[104.0031,17.8434],[103.9998,17.839],[104.0118,17.8245],[104.0122,17.8095],[104.0203,17.7981],[104.0108,17.7925],[104.0114,17.7866],[104.0251,17.7554],[104.0363,17.7656],[104.0575,17.7541],[104.0518,17.7354],[104.0651,17.7434],[104.0677,17.7219],[104.0606,17.7241],[104.0776,17.704],[104.0714,17.6969],[104.0774,17.6939],[104.0672,17.6887],[104.0678,17.683],[104.071,17.6768],[104.0818,17.6806],[104.0806,17.6683],[104.0726,17.663],[104.0721,17.6466],[104.0531,17.6369],[104.0437,17.6415],[104.0314,17.6384],[104.0346,17.6162],[104.0548,17.5796],[104.0389,17.5519],[104.0382,17.516],[104.0209,17.487],[104.0108,17.481],[104.0417,17.4134],[104.0539,17.4026],[104.0548,17.3825],[104.0684,17.3844],[104.0765,17.3733],[104.082,17.3887],[104.0923,17.3798],[104.0892,17.3737],[104.1003,17.3772],[104.0944,17.3988],[104.1114,17.3976],[104.1139,17.3879],[104.125,17.3942],[104.1282,17.3782],[104.1334,17.3772],[104.1438,17.3844],[104.1412,17.3893],[104.1541,17.3939],[104.1449,17.4002],[104.147,17.4059],[104.1513,17.402],[104.1566,17.4119],[104.1756,17.4122],[104.1708,17.4216],[104.1748,17.4257],[104.1844,17.4196],[104.2017,17.4237],[104.2081,17.4131],[104.2268,17.4048],[104.2675,17.411],[104.3101,17.4278],[104.3743,17.4203],[104.4085,17.4242],[104.4173,17.4148],[104.4083,17.3712],[104.4236,17.3355],[104.405,17.296],[104.407,17.2763],[104.4337,17.2332],[104.4142,17.2163],[104.3997,17.177],[104.4021,17.1298],[104.3623,17.0905],[104.3637,17.0713],[104.3558,17.0659],[104.3588,17.0559],[104.363,17.0602],[104.3881,17.0409],[104.3919,17.0309],[104.3979,17.0323],[104.4005,17.0209],[104.3681,17.0044],[104.3556,16.984],[104.3261,16.9756],[104.3077,16.9308],[104.2812,16.9221],[104.2821,16.9067],[104.3163,16.8946],[104.3557,16.9],[104.3695,16.8852],[104.3831,16.8872],[104.4063,16.8759],[104.4104,16.883],[104.424,16.8851],[104.4536,16.8624],[104.4759,16.8621],[104.5032,16.846],[104.551,16.8618],[104.623,16.8596],[104.6459,16.8404],[104.6471,16.8151],[104.6726,16.7848],[104.7084,16.8237],[104.7171,16.8228],[104.7304,16.8036],[104.7392,16.8017]]]}},{"type":"Feature","properties":{"Province":"Nakhon Ratchasima","Suit_mean":0.7066,"Suit_max":0.9622,"Candidate_km2":0.0},"geometry":{"type":"Polygon","coordinates":[[[101.4166,15.0398],[101.4599,14.8642],[101.3449,14.7969],[101.3391,14.7676],[101.3089,14.7525],[101.3004,14.7378],[101.2861,14.7428],[101.2805,14.7252],[101.2444,14.7321],[101.2147,14.7508],[101.1999,14.7503],[101.1911,14.741],[101.2068,14.684],[101.2185,14.5835],[101.1888,14.5409],[101.2382,14.4793],[101.2813,14.5065],[101.2865,14.4906],[101.3164,14.4898],[101.3221,14.4727],[101.396,14.421],[101.4106,14.4222],[101.4271,14.3866],[101.4447,14.4234],[101.4417,14.4408],[101.4798,14.456],[101.4932,14.4534],[101.5175,14.4272],[101.538,14.4202],[101.5536,14.4313],[101.6075,14.4321],[101.6226,14.4259],[101.6329,14.4041],[101.65,14.4029],[101.6575,14.3878],[101.7403,14.3018],[101.7519,14.3117],[101.7512,14.3324],[101.7596,14.3386],[101.7808,14.344],[101.7928,14.3543],[101.8086,14.3459],[101.8252,14.3463],[101.8697,14.3684],[101.871,14.3844],[101.8847,14.3791],[101.9016,14.3326],[101.9264,14.3295],[101.9565,14.3126],[101.9738,14.3187],[101.9914,14.3084],[101.9953,14.2918],[101.9557,14.2519],[101.9701,14.2247],[102.0422,14.189],[102.0802,14.1602],[102.1217,14.146],[102.134,14.1359],[102.1536,14.1346],[102.1699,14.1412],[102.1746,14.1778],[102.1855,14.1926],[102.2146,14.1686],[102.2142,14.1529],[102.2263,14.142],[102.2702,14.1427],[102.2773,14.1261],[102.2986,14.1272],[102.3171,14.1184],[102.3514,14.1218],[102.3611,14.1383],[102.3624,14.1558],[102.4013,14.1415],[102.4152,14.1513],[102.4322,14.1485],[102.4525,14.1831],[102.4846,14.1914],[102.5,14.1824],[102.5124,14.1938],[102.5403,14.1969],[102.626,14.2615],[102.6508,14.2955],[102.6718,14.303],[102.639,14.32],[102.6169,14.3166],[102.598,14.3239],[102.583,14.3556],[102.5659,14.3638],[102.5592,14.3804],[102.5605,14.3988],[102.5863,14.443],[102.6025,14.4569],[102.6021,14.499],[102.5862,14.5064],[102.5068,14.4985],[102.4887,14.504],[102.4992,14.5294],[102.5016,14.5691],[102.4762,14.6142],[102.4725,14.6324],[102.4773,14.6558],[102.472,14.6756],[102.4572,14.6943],[102.4777,14.7338],[102.4778,14.7513],[102.4385,14.7853],[102.4436,14.8414],[102.4654,14.8338],[102.5014,14.8057],[102.5201,14.8067],[102.5338,14.8151],[102.5558,14.8474],[102.547,14.8857],[102.5538,14.9056],[102.5698,14.9207],[102.5624,14.9466],[102.5809,14.9515],[102.6172,14.9334],[102.6935,14.9306],[102.7082,14.9406],[102.7142,14.9772],[102.745,14.9926],[102.7854,15.0344],[102.7692,15.0764],[102.7863,15.0863],[102.8403,15.1503],[102.855,15.1631],[102.8747,15.1663],[102.8905,15.1772],[102.9419,15.1789],[102.9723,15.1935],[102.9757,15.2079],[102.9636,15.226],[102.963,15.274],[102.9697,15.2909],[102.9589,15.3061],[102.9622,15.3206],[102.9944,15.3389],[102.9881,15.3702],[102.9694,15.3742],[102.9577,15.3852],[102.9595,15.4001],[102.9707,15.4063],[102.9798,15.4228],[102.996,15.412],[103.0127,15.4319],[102.9838,15.4743],[102.9412,15.4733],[102.9458,15.4883],[102.933,15.4868],[102.9328,15.4981],[102.9103,15.511],[102.8837,15.5167],[102.8695,15.5058],[102.8228,15.5072],[102.7859,15.5611],[102.7774,15.6112],[102.7825,15.6413],[102.7525,15.6599],[102.7204,15.6642],[102.6966,15.6946],[102.7002,15.7094],[102.6938,15.7208],[102.6585,15.7116],[102.6075,15.7187],[102.5933,15.7062],[102.556,15.7031],[102.5102,15.7252],[102.4554,15.7119],[102.4236,15.6929],[102.4068,15.7011],[102.3807,15.7281],[102.3642,15.7313],[102.3624,15.7656],[102.3236,15.8033],[102.2951,15.7834],[102.2615,15.7734],[102.2526,15.7458],[102.2359,15.7403],[102.2084,15.7508],[102.2047,15.7372],[102.1622,15.7374],[102.1639,15.7229],[102.1496,15.6971],[102.1496,15.6797],[102.1029,15.6267],[102.0928,15.6296],[102.0455,15.5497],[102.048,15.5156],[102.0332,15.4639],[102.0119,15.4554],[101.9941,15.46],[101.9745,15.4511],[101.938,15.4527],[101.9346,15.4367],[101.9206,15.4273],[101.9001,15.3965],[101.8846,15.3909],[101.8075,15.4238],[101.7821,15.3783],[101.7442,15.3771],[101.708,15.3877],[101.6898,15.3854],[101.6739,15.3941],[101.6429,15.3839],[101.6339,15.3673],[101.6195,15.3613],[101.6033,15.3714],[101.5259,15.3702],[101.4813,15.3461],[101.4425,15.3503],[101.4292,15.3411],[101.4162,15.312],[101.3883,15.3259],[101.3894,15.241],[101.38,15.2373],[101.3682,15.2463],[101.3646,15.2348],[101.3747,15.1858],[101.3921,15.1576],[101.4025,15.0761],[101.4166,15.0398]]]}},{"type":"Feature","properties":{"Province":"Nong Khai","Suit_mean":0.6486,"Suit_max":0.8439,"Candidate_km2":0.0},"geometry":{"type":"Polygon","coordinates":[[[102.0593,18.0801],[102.0834,18.0577],[102.1066,18.058],[102.1152,18.0512],[102.1091,18.0306],[102.1145,18.0241],[102.1372,18.0307],[102.1476,18.0277],[102.1447,18.007],[102.155,17.9883],[102.165,17.9888],[102.1739,18.0085],[102.2021,18.0154],[102.2107,18.0041],[102.2434,17.9987],[102.27,17.9807],[102.2812,17.978],[102.2872,17.9875],[102.3314,17.936],[102.3701,17.9114],[102.3687,17.9022],[102.3947,17.8842],[102.4009,17.8751],[102.4033,17.8431],[102.4304,17.8159],[102.4437,17.8163],[102.4358,17.7893],[102.4521,17.7735],[102.4593,17.7549],[102.4795,17.748],[102.5258,17.7567],[102.5359,17.7513],[102.5918,17.6907],[102.5881,17.6815],[102.6033,17.6501],[102.5987,17.6199],[102.638,17.6133],[102.661,17.5924],[102.6934,17.6113],[102.7239,17.6017],[102.7671,17.6213],[102.7683,17.6405],[102.7772,17.6449],[102.7857,17.6749],[102.8294,17.687],[102.8358,17.6952],[102.8363,17.7081],[102.8511,17.7247],[102.8487,17.743],[102.8557,17.7656],[102.8417,17.8009],[102.8306,17.8043],[102.8412,17.8103],[102.8415,17.819],[102.8524,17.8216],[102.8501,17.8325],[102.87,17.8403],[102.8741,17.8772],[102.8873,17.8931],[102.8956,17.8871],[102.9256,17.8874],[102.9339,17.8811],[102.9711,17.8179],[102.9824,17.8229],[103.019,17.8713],[103.0411,17.8733],[103.0465,17.8843],[103.0544,17.8745],[103.0741,17.874],[103.0994,17.8644],[103.1093,17.853],[103.1163,17.8556],[103.1294,17.8235],[103.1499,17.7993],[103.1694,17.8081],[103.1789,17.8488],[103.2067,17.8653],[103.2399,17.8687],[103.2701,17.8511],[103.2777,17.8314],[103.299,17.8263],[103.3442,17.8581],[103.3558,17.8741],[103.3798,17.8781],[103.4142,17.8739],[103.4143,17.8918],[103.3997,17.9057],[103.3982,17.9274],[103.4088,17.9256],[103.4125,17.9338],[103.4044,17.9495],[103.3948,17.9527],[103.3909,17.9818],[103.4007,17.9799],[103.4085,17.9882],[103.4271,17.9785],[103.4294,17.9715],[103.4494,17.9649],[103.4516,17.9737],[103.4407,17.9758],[103.4438,17.9854],[103.4664,17.9863],[103.48,17.9987],[103.4963,17.9852],[103.5065,18.0005],[103.5025,18.0571],[103.5155,18.0699],[103.5382,18.0655],[103.5436,18.084],[103.5498,18.0742],[103.5432,18.0667],[103.5634,18.0576],[103.5868,18.0338],[103.5922,18.0424],[103.5991,18.041],[103.6146,18.0102],[103.6372,18.0111],[103.6401,18.0067],[103.6243,17.9941],[103.6266,17.9716],[103.6408,17.9709],[103.6426,17.9606],[103.6533,17.9609],[103.6605,17.9703],[103.668,17.9643],[103.6632,17.9551],[103.6672,17.9465],[103.69,17.9509],[103.7465,17.9099],[103.7544,17.9155],[103.752,17.9266],[103.7607,17.9474],[103.7665,17.9479],[103.7578,17.9257],[103.7623,17.9173],[103.7815,17.9292],[103.7765,17.9057],[103.7838,17.8952],[103.7819,17.8867],[103.77,17.8883],[103.7668,17.8784],[103.7958,17.8406],[103.8058,17.8464],[103.8092,17.8573],[103.7987,17.8656],[103.7999,17.8735],[103.8335,17.8676],[103.8508,17.8791],[103.8624,17.8788],[103.8684,17.8711],[103.865,17.8611],[103.8832,17.8737],[103.9063,17.8726],[103.9035,17.8438],[103.9222,17.8514],[103.9243,17.8292],[103.9191,17.8186],[103.9347,17.8031],[103.9424,17.7819],[103.9623,17.7753],[103.9729,17.7814],[103.9729,17.773],[103.9954,17.7855],[103.9998,17.8025],[104.0104,17.8086],[104.0118,17.825],[103.9849,17.8587],[103.9972,17.8874],[104.0273,17.8815],[104.0521,17.8854],[104.074,17.8764],[104.0843,17.8831],[104.1299,17.9457],[104.1159,17.9767],[104.1208,18.0065],[104.1321,18.0063],[104.1487,18.0231],[104.1584,18.0231],[104.1711,18.0045],[104.1914,18.0195],[103.969,18.3383],[103.8308,18.3297],[103.3743,18.4392],[103.2435,18.3663],[103.2574,18.287],[103.1437,18.1681],[103.0639,18.0109],[102.9461,18.0031],[102.7673,17.9017],[102.6972,17.8201],[102.5877,17.8743],[102.5526,17.9697],[102.3461,18.0451],[102.1993,18.135],[102.1075,18.2059],[102.1053,18.1653],[102.1012,18.1567],[102.09,18.156],[102.0741,18.1421],[102.0593,18.0801]]]}},{"type":"Feature","properties":{"Province":"Roi Et","Suit_mean":0.7146,"Suit_max":0.829,"Candidate_km2":0.0},"geometry":{"type":"Polygon","coordinates":[[[103.2767,15.6004],[103.2854,15.5913],[103.2943,15.5915],[103.3084,15.5584],[103.3554,15.5379],[103.3613,15.5275],[103.4149,15.5348],[103.4229,15.5252],[103.4239,15.4978],[103.4045,15.4369],[103.4124,15.4351],[103.4462,15.4504],[103.4754,15.4482],[103.4934,15.4359],[103.5347,15.4238],[103.5714,15.4587],[103.6118,15.4645],[103.6769,15.4439],[103.7194,15.4439],[103.7277,15.437],[103.7471,15.4448],[103.7792,15.4337],[103.8341,15.4581],[103.8447,15.4559],[103.8545,15.4621],[103.8601,15.4516],[103.868,15.4521],[103.884,15.4639],[103.8871,15.4534],[103.8958,15.4605],[103.9076,15.4396],[103.9458,15.436],[103.948,15.4174],[103.9559,15.4121],[103.9726,15.4226],[103.9769,15.4049],[104.0309,15.4767],[104.053,15.4916],[104.0657,15.5164],[104.0762,15.5209],[104.081,15.5397],[104.0901,15.5476],[104.1008,15.5453],[104.1033,15.5647],[104.1156,15.5608],[104.1341,15.5794],[104.1719,15.6005],[104.2123,15.6056],[104.2086,15.6133],[104.1881,15.6064],[104.1852,15.6176],[104.1927,15.6254],[104.1751,15.6312],[104.1747,15.6526],[104.1897,15.6595],[104.1794,15.6609],[104.1438,15.7096],[104.1281,15.6924],[104.1207,15.7008],[104.1318,15.7043],[104.1297,15.7171],[104.1381,15.7247],[104.1413,15.751],[104.1312,15.7674],[104.1407,15.7858],[104.1365,15.7962],[104.1125,15.8054],[104.0811,15.8336],[104.0707,15.8312],[104.0792,15.8157],[104.0446,15.7955],[104.0079,15.7918],[104.0015,15.8094],[104.01,15.8134],[104.018,15.8273],[104.0146,15.8357],[104.0296,15.8538],[104.0235,15.8603],[104.0374,15.8673],[104.0267,15.8683],[104.0311,15.8739],[104.0212,15.8814],[104.0178,15.9079],[104.0285,15.9131],[104.0366,15.942],[104.0264,15.955],[104.0181,15.9487],[104.0182,15.9601],[104.0362,15.9804],[104.0623,15.9829],[104.1005,15.9751],[104.1086,15.9847],[104.1072,15.9978],[104.1183,16.0282],[104.1056,16.0541],[104.1027,16.0767],[104.1189,16.1095],[104.1432,16.1062],[104.1795,16.1436],[104.197,16.1442],[104.2038,16.1545],[104.2237,16.1561],[104.2515,16.1916],[104.2562,16.2153],[104.3024,16.2343],[104.3374,16.2752],[104.3499,16.3202],[104.3252,16.3259],[104.3303,16.3458],[104.3188,16.3876],[104.3219,16.415],[104.3081,16.4605],[104.3005,16.4673],[104.2907,16.4659],[104.2848,16.4451],[104.2479,16.4327],[104.1967,16.4272],[104.1737,16.4427],[104.1507,16.4341],[104.1434,16.4222],[104.1038,16.4172],[104.0477,16.3878],[104.0374,16.4368],[103.997,16.4407],[103.9901,16.4313],[103.9503,16.4386],[103.9232,16.436],[103.9168,16.4448],[103.8659,16.4677],[103.8529,16.4631],[103.8253,16.4687],[103.8173,16.4566],[103.7453,16.4087],[103.7266,16.3888],[103.7128,16.3847],[103.7065,16.3698],[103.7292,16.3411],[103.729,16.3264],[103.7584,16.2989],[103.7567,16.2648],[103.7408,16.247],[103.7354,16.2208],[103.715,16.2161],[103.6984,16.2209],[103.6906,16.2073],[103.686,16.2142],[103.6769,16.2094],[103.67,16.2174],[103.666,16.2073],[103.6759,16.1949],[103.6656,16.1904],[103.6594,16.1987],[103.6552,16.1887],[103.6365,16.1876],[103.627,16.2096],[103.6173,16.2158],[103.6033,16.2126],[103.6195,16.2031],[103.6052,16.1904],[103.5993,16.1984],[103.5913,16.1918],[103.5545,16.2005],[103.5578,16.2137],[103.5481,16.2105],[103.5358,16.2154],[103.5248,16.1964],[103.5043,16.1964],[103.4916,16.1798],[103.495,16.1667],[103.4624,16.1148],[103.4582,16.087],[103.4734,16.0387],[103.4643,16.0185],[103.4652,15.9686],[103.4798,15.9341],[103.4651,15.9217],[103.4473,15.8643],[103.4377,15.7915],[103.4306,15.7758],[103.4058,15.7636],[103.4016,15.7529],[103.4224,15.737],[103.4236,15.7249],[103.415,15.71],[103.3905,15.7063],[103.3552,15.7208],[103.3303,15.7023],[103.303,15.6944],[103.2808,15.6658],[103.3078,15.6552],[103.3019,15.6296],[103.2767,15.6004]]]}},{"type":"Feature","properties":{"Province":"Sakon Nakhon","Suit_mean":0.6958,"Suit_max":0.8779,"Candidate_km2":0.0},"geometry":{"type":"Polygon","coordinates":[[[103.4073,17.8726],[103.4073,17.8554],[103.3974,17.8512],[103.4163,17.8299],[103.3878,17.8369],[103.3789,17.7937],[103.3706,17.7872],[103.3812,17.7545],[103.4046,17.7519],[103.4093,17.7401],[103.4018,17.6092],[103.413,17.5895],[103.3881,17.5883],[103.376,17.5762],[103.368,17.5844],[103.3459,17.5748],[103.3355,17.5519],[103.3269,17.5471],[103.3205,17.5226],[103.2925,17.4948],[103.2906,17.4581],[103.2789,17.4379],[103.2852,17.414],[103.3007,17.3935],[103.3005,17.3815],[103.2579,17.3077],[103.2872,17.2621],[103.3129,17.2652],[103.3593,17.2464],[103.3623,17.2369],[103.4169,17.2118],[103.466,17.2146],[103.4733,17.2254],[103.5715,17.1576],[103.6012,17.167],[103.6266,17.1426],[103.6448,17.1087],[103.6615,17.1098],[103.6701,17.1021],[103.6607,17.0755],[103.6693,17.0509],[103.6637,17.0257],[103.6702,17.0167],[103.7027,17.0271],[103.7095,17.0145],[103.731,17.0066],[103.726,16.9901],[103.7306,16.9815],[103.7427,16.9835],[103.752,16.9718],[103.7871,16.9516],[103.7905,16.9017],[103.8668,16.8337],[103.9375,16.7837],[103.9437,16.772],[103.9557,16.7822],[103.963,16.8221],[103.9741,16.8113],[103.9797,16.8226],[104.027,16.8552],[104.038,16.8421],[104.0644,16.8375],[104.0738,16.8295],[104.1081,16.8332],[104.1261,16.8627],[104.1292,16.8865],[104.1639,16.8884],[104.2035,16.8751],[104.222,16.8898],[104.2436,16.8902],[104.2702,16.9169],[104.3064,16.9287],[104.3301,16.9759],[104.3543,16.9826],[104.3565,16.9925],[104.3949,17.0154],[104.3995,17.0249],[104.389,17.0391],[104.3549,17.0639],[104.3649,17.069],[104.364,17.0932],[104.4009,17.1277],[104.3972,17.1671],[104.4178,17.22],[104.4314,17.2309],[104.4261,17.2523],[104.4083,17.2741],[104.4044,17.2997],[104.4216,17.3264],[104.4227,17.3389],[104.4077,17.3748],[104.4173,17.4125],[104.4111,17.4228],[104.343,17.4216],[104.3138,17.4282],[104.2636,17.4102],[104.2224,17.4061],[104.2035,17.4214],[104.1715,17.4239],[104.1729,17.4135],[104.1484,17.4038],[104.1527,17.39],[104.1419,17.3915],[104.1412,17.3816],[104.1299,17.3766],[104.121,17.3931],[104.1103,17.3885],[104.1084,17.3987],[104.0968,17.3989],[104.1009,17.3796],[104.0907,17.372],[104.0894,17.3821],[104.0788,17.3885],[104.0759,17.3756],[104.0576,17.3817],[104.0504,17.406],[104.0188,17.4547],[104.0114,17.4846],[104.0367,17.5133],[104.0399,17.556],[104.0544,17.5769],[104.0537,17.5885],[104.0339,17.6205],[104.0349,17.6381],[104.0673,17.6431],[104.0796,17.6734],[104.0697,17.6803],[104.0777,17.7013],[104.0615,17.7221],[104.0655,17.7215],[104.0664,17.7411],[104.0501,17.7393],[104.0571,17.7465],[104.0541,17.758],[104.0388,17.7656],[104.0233,17.759],[104.0124,17.7844],[104.0183,17.8018],[104.0064,17.8077],[103.9994,17.7853],[103.9868,17.7828],[103.9813,17.7731],[103.9677,17.7804],[103.9571,17.7733],[103.9457,17.7799],[103.9233,17.8124],[103.9226,17.8487],[103.9131,17.851],[103.9023,17.8434],[103.9012,17.8764],[103.8636,17.8623],[103.8675,17.8754],[103.8565,17.8796],[103.8346,17.8675],[103.7955,17.8722],[103.8077,17.8477],[103.7968,17.8406],[103.7779,17.8605],[103.7658,17.8853],[103.7802,17.8872],[103.7838,17.8952],[103.7764,17.9082],[103.7834,17.9218],[103.7766,17.9266],[103.7654,17.918],[103.7577,17.9247],[103.7662,17.9508],[103.747,17.9094],[103.7236,17.9243],[103.7183,17.9384],[103.6918,17.9498],[103.6651,17.947],[103.6653,17.969],[103.6439,17.9603],[103.6405,17.9713],[103.6296,17.9668],[103.6244,17.9893],[103.6281,18.0015],[103.6395,18.0061],[103.6113,18.0149],[103.6096,18.0294],[103.6,18.039],[103.5922,18.0424],[103.5851,18.034],[103.5785,18.0447],[103.5438,18.065],[103.5495,18.0749],[103.5416,18.0822],[103.54,18.0692],[103.5308,18.0641],[103.5183,18.0709],[103.5019,18.0559],[103.5056,18.0026],[103.4948,17.9849],[103.4756,18.0001],[103.4684,17.9892],[103.4433,17.985],[103.444,17.9751],[103.4531,17.9703],[103.4422,17.9657],[103.4057,17.9867],[103.3905,17.9752],[103.3948,17.9527],[103.4065,17.9482],[103.4136,17.9282],[103.3987,17.9192],[103.3994,17.9051],[103.4107,17.8982],[103.4179,17.8761],[103.4073,17.8726]]]}},{"type":"Feature","properties":{"Province":"Surin","Suit_mean":0.7072,"Suit_max":0.954,"Candidate_km2":0.0},"geometry":{"type":"Polygon","coordinates":[[[103.4035,15.4311],[103.3434,15.4031],[103.2723,15.4211],[103.2572,15.4393],[103.2352,15.4437],[103.2154,15.4576],[103.116,15.4772],[103.1185,15.4649],[103.1117,15.4576],[103.118,15.4382],[103.0946,15.4191],[103.1219,15.3975],[103.1314,15.4057],[103.1346,15.3964],[103.1383,15.4039],[103.1466,15.4021],[103.1509,15.3795],[103.1579,15.3805],[103.1517,15.372],[103.1674,15.3577],[103.1615,15.3498],[103.1891,15.3624],[103.2007,15.359],[103.1947,15.3549],[103.2011,15.3345],[103.2098,15.3367],[103.2247,15.3285],[103.2311,15.316],[103.2499,15.3149],[103.2576,15.3066],[103.2866,15.314],[103.2858,15.3058],[103.2983,15.2972],[103.3312,15.3314],[103.3524,15.3357],[103.3562,15.3417],[103.3754,15.3358],[103.383,15.3268],[103.4018,15.3276],[103.3932,15.3132],[103.4042,15.3091],[103.4249,15.3117],[103.4323,15.3051],[103.4378,15.324],[103.4517,15.3338],[103.4509,15.3412],[103.4762,15.3294],[103.4765,15.3183],[103.507,15.3069],[103.5023,15.2977],[103.5082,15.2902],[103.4859,15.2903],[103.4705,15.2775],[103.4587,15.2517],[103.4489,15.2583],[103.4348,15.2023],[103.4239,15.1978],[103.4229,15.1863],[103.4334,15.1808],[103.4285,15.1606],[103.4357,15.1048],[103.4458,15.1015],[103.4381,15.0969],[103.4359,15.0858],[103.4458,15.0831],[103.431,15.0668],[103.4503,15.0392],[103.4453,15.0293],[103.4275,15.0224],[103.4188,15.0015],[103.4315,14.9712],[103.4224,14.9673],[103.42,14.9528],[103.4271,14.9296],[103.4224,14.9188],[103.4034,14.9079],[103.4042,14.8883],[103.3934,14.89],[103.3787,14.8593],[103.3476,14.829],[103.3256,14.8265],[103.314,14.8076],[103.2927,14.8063],[103.2915,14.7798],[103.2708,14.7535],[103.2704,14.6978],[103.2343,14.6359],[103.2398,14.6132],[103.217,14.5883],[103.2258,14.5408],[103.2149,14.5368],[103.2164,14.5255],[103.2226,14.5155],[103.223,14.4937],[103.2384,14.474],[103.2498,14.4286],[103.2392,14.407],[103.2257,14.3997],[103.2376,14.3847],[103.2249,14.3632],[103.2273,14.3397],[103.4141,14.3689],[103.515,14.3971],[103.6606,14.4163],[103.779,14.3629],[103.9148,14.3333],[103.9948,14.3504],[104.0633,14.3435],[104.0496,14.3651],[104.0597,14.4602],[104.0517,14.4847],[104.0365,14.4965],[104.0334,14.5294],[104.0566,14.5767],[104.059,14.6032],[104.0501,14.6689],[104.0453,14.6796],[104.0173,14.6985],[104.0066,14.7196],[104.0029,14.7312],[104.0096,14.7604],[103.9952,14.8058],[103.9351,14.8188],[103.9061,14.8397],[103.9275,14.8922],[103.9714,14.9519],[103.9732,14.9717],[103.9841,14.9706],[103.9998,14.9883],[104.0073,15.0194],[104.0233,15.0466],[104.0117,15.0612],[104.0224,15.0725],[104.0151,15.0807],[103.9979,15.0835],[103.9952,15.1096],[104.0014,15.1172],[103.9897,15.1275],[104.0022,15.1438],[103.972,15.1669],[103.9746,15.1871],[103.9867,15.2],[103.9746,15.2201],[103.9848,15.222],[103.9921,15.2461],[104.0026,15.2521],[103.978,15.2662],[103.98,15.2802],[103.9927,15.2628],[104.0013,15.2739],[104.0027,15.2931],[104.017,15.2928],[104.0161,15.3143],[104.0285,15.3134],[104.0292,15.3317],[104.0394,15.3268],[104.0712,15.3477],[104.0828,15.3479],[104.0888,15.3635],[104.084,15.3821],[104.0749,15.3834],[104.0649,15.4007],[104.0554,15.3976],[104.0185,15.4081],[103.9961,15.3926],[103.9747,15.4083],[103.978,15.4193],[103.9684,15.4217],[103.9638,15.412],[103.9523,15.4121],[103.9415,15.4357],[103.9152,15.435],[103.9024,15.4417],[103.8949,15.4653],[103.8865,15.4576],[103.8798,15.4658],[103.8661,15.448],[103.8604,15.4571],[103.8412,15.4572],[103.7754,15.4357],[103.6736,15.4434],[103.6083,15.4662],[103.5681,15.4585],[103.5407,15.4282],[103.531,15.4253],[103.49,15.4385],[103.4837,15.4474],[103.4567,15.4505],[103.4416,15.4499],[103.4035,15.4311]]]}},{"type":"Feature","properties":{"Province":"Yasothon","Suit_mean":0.7158,"Suit_max":0.8798,"Candidate_km2":0.0},"geometry":{"type":"Polygon","coordinates":[[[104.1274,15.5638],[104.1437,15.5297],[104.1414,15.513],[104.1848,15.471],[104.2498,15.3773],[104.3004,15.3433],[104.3518,15.3417],[104.3734,15.3198],[104.3815,15.329],[104.3877,15.327],[104.3879,15.2985],[104.4096,15.2888],[104.4173,15.3011],[104.4237,15.3481],[104.4105,15.3853],[104.3908,15.386],[104.385,15.3928],[104.3938,15.4075],[104.3811,15.4514],[104.3918,15.4739],[104.3911,15.5305],[104.4188,15.5319],[104.4363,15.5397],[104.4842,15.5373],[104.5117,15.5654],[104.5077,15.5841],[104.4631,15.5891],[104.4679,15.6239],[104.4418,15.6189],[104.4492,15.6351],[104.4407,15.6469],[104.4479,15.6505],[104.4396,15.6638],[104.4462,15.6689],[104.4426,15.6941],[104.426,15.6949],[104.4231,15.7033],[104.4319,15.7343],[104.423,15.7459],[104.4348,15.756],[104.4292,15.7707],[104.4535,15.8329],[104.4625,15.8389],[104.4597,15.8557],[104.4525,15.8612],[104.4618,15.8929],[104.4568,15.8977],[104.4722,15.9031],[104.4685,15.9099],[104.507,15.9513],[104.5072,15.9771],[104.5249,15.9845],[104.5324,15.9978],[104.5279,16.0093],[104.5397,16.0556],[104.5713,16.1],[104.6555,16.116],[104.7098,16.1044],[104.7271,16.0947],[104.7825,16.0989],[104.8102,16.0909],[104.8178,16.0943],[104.8273,16.1521],[104.7902,16.1595],[104.7644,16.1943],[104.7071,16.208],[104.6928,16.222],[104.6658,16.2341],[104.6544,16.2126],[104.6359,16.2083],[104.6118,16.2222],[104.6016,16.2371],[104.5839,16.2424],[104.5486,16.3085],[104.5149,16.3146],[104.5018,16.3383],[104.4537,16.3358],[104.4361,16.3432],[104.395,16.3454],[104.3629,16.3334],[104.3194,16.2484],[104.2979,16.2313],[104.2598,16.2189],[104.2471,16.1865],[104.2274,16.1591],[104.2198,16.1527],[104.2115,16.1595],[104.2022,16.1466],[104.1781,16.1436],[104.145,16.1077],[104.1189,16.1095],[104.103,16.0773],[104.1025,16.0596],[104.1191,16.0349],[104.1057,15.9807],[104.0961,15.9745],[104.0595,15.9826],[104.0325,15.9796],[104.0165,15.9564],[104.0198,15.9484],[104.0307,15.9552],[104.0369,15.9416],[104.0368,15.9283],[104.0202,15.909],[104.0195,15.8969],[104.0194,15.8842],[104.036,15.864],[104.0223,15.8614],[104.0299,15.8581],[104.0295,15.85],[104.0214,15.836],[104.016,15.8404],[104.018,15.8273],[104.0116,15.8252],[104.0145,15.8159],[104.0015,15.8099],[104.005,15.8025],[104.014,15.7924],[104.0403,15.7937],[104.0751,15.813],[104.0805,15.8197],[104.0717,15.822],[104.0751,15.8354],[104.139,15.7921],[104.1392,15.7757],[104.1304,15.7636],[104.1431,15.7453],[104.1353,15.7383],[104.1414,15.7253],[104.1314,15.7217],[104.1318,15.7043],[104.1239,15.7031],[104.123,15.6957],[104.1307,15.6927],[104.1406,15.7083],[104.1493,15.7108],[104.1463,15.7039],[104.1771,15.6611],[104.1872,15.6641],[104.1893,15.6562],[104.1755,15.6553],[104.1793,15.6384],[104.1751,15.6312],[104.1904,15.6302],[104.1851,15.6183],[104.1919,15.6069],[104.2145,15.61],[104.1649,15.5979],[104.1285,15.5763],[104.1274,15.5638]]]}}]}